CCSDS_OMM_VERS = 2.0
CREATION_DATE  = 
ORIGINATOR     = 

OBJECT_NAME    = STARLINK-36788
OBJECT_ID      = 2026-032Y
CENTER_NAME    = EARTH
REF_FRAME      = TEME
TIME_SYSTEM    = UTC
MEAN_ELEMENT_THEORY = SGP/SGP4

EPOCH          = 2026-03-12T21:48:34.214976
MEAN_MOTION    = 15.75259890
ECCENTRICITY   = .0001242
INCLINATION    = 97.2840
RA_OF_ASC_NODE = 258.6055
ARG_OF_PERICENTER = 120.4882
MEAN_ANOMALY   = 239.6506

EPHEMERIS_TYPE = 0
CLASSIFICATION_TYPE = U
NORAD_CAT_ID   = 67819
ELEMENT_SET_NO = 999
REV_AT_EPOCH   = 529
BSTAR          = .10987E-2
MEAN_MOTION_DOT = .167511E-2
MEAN_MOTION_DDOT = 0

CCSDS_OMM_VERS = 2.0
CREATION_DATE  = 
ORIGINATOR     = 

OBJECT_NAME    = STARLINK-36353
OBJECT_ID      = 2026-032Z
CENTER_NAME    = EARTH
REF_FRAME      = TEME
TIME_SYSTEM    = UTC
MEAN_ELEMENT_THEORY = SGP/SGP4

EPOCH          = 2026-03-12T23:14:27.791808
MEAN_MOTION    = 15.75202121
ECCENTRICITY   = .000172
INCLINATION    = 97.2840
RA_OF_ASC_NODE = 258.6768
ARG_OF_PERICENTER = 97.9999
MEAN_ANOMALY   = 262.1461

EPHEMERIS_TYPE = 0
CLASSIFICATION_TYPE = U
NORAD_CAT_ID   = 67820
ELEMENT_SET_NO = 999
REV_AT_EPOCH   = 530
BSTAR          = .294E-3
MEAN_MOTION_DOT = .43972E-3
MEAN_MOTION_DDOT = 0

CCSDS_OMM_VERS = 2.0
CREATION_DATE  = 
ORIGINATOR     = 

OBJECT_NAME    = STARLINK-36644
OBJECT_ID      = 2026-033A
CENTER_NAME    = EARTH
REF_FRAME      = TEME
TIME_SYSTEM    = UTC
MEAN_ELEMENT_THEORY = SGP/SGP4

EPOCH          = 2026-03-12T22:00:01.999584
MEAN_MOTION    = 15.76008420
ECCENTRICITY   = .0001532
INCLINATION    = 42.9993
RA_OF_ASC_NODE = 251.7906
ARG_OF_PERICENTER = 275.2357
MEAN_ANOMALY   = 84.1413

EPHEMERIS_TYPE = 0
CLASSIFICATION_TYPE = U
NORAD_CAT_ID   = 67821
ELEMENT_SET_NO = 999
REV_AT_EPOCH   = 518
BSTAR          = -.13344E-1
MEAN_MOTION_DOT = -.1866344E-1
MEAN_MOTION_DDOT = 0

CCSDS_OMM_VERS = 2.0
CREATION_DATE  = 
ORIGINATOR     = 

OBJECT_NAME    = STARLINK-36643
OBJECT_ID      = 2026-033B
CENTER_NAME    = EARTH
REF_FRAME      = TEME
TIME_SYSTEM    = UTC
MEAN_ELEMENT_THEORY = SGP/SGP4

EPOCH          = 2026-03-12T22:00:01.999584
MEAN_MOTION    = 15.71415998
ECCENTRICITY   = .0001695
INCLINATION    = 42.9991
RA_OF_ASC_NODE = 251.8616
ARG_OF_PERICENTER = 273.9588
MEAN_ANOMALY   = 56.9162

EPHEMERIS_TYPE = 0
CLASSIFICATION_TYPE = U
NORAD_CAT_ID   = 67822
ELEMENT_SET_NO = 999
REV_AT_EPOCH   = 518
BSTAR          = -.16268E-1
MEAN_MOTION_DOT = -.1862392E-1
MEAN_MOTION_DDOT = 0

CCSDS_OMM_VERS = 2.0
CREATION_DATE  = 
ORIGINATOR     = 

OBJECT_NAME    = STARLINK-36646
OBJECT_ID      = 2026-033C
CENTER_NAME    = EARTH
REF_FRAME      = TEME
TIME_SYSTEM    = UTC
MEAN_ELEMENT_THEORY = SGP/SGP4

EPOCH          = 2026-03-12T22:00:01.999584
MEAN_MOTION    = 15.74460141
ECCENTRICITY   = .0001681
INCLINATION    = 42.9992
RA_OF_ASC_NODE = 251.7914
ARG_OF_PERICENTER = 273.8930
MEAN_ANOMALY   = 85.0149

EPHEMERIS_TYPE = 0
CLASSIFICATION_TYPE = U
NORAD_CAT_ID   = 67823
ELEMENT_SET_NO = 999
REV_AT_EPOCH   = 518
BSTAR          = -.1427E-1
MEAN_MOTION_DOT = -.1863981E-1
MEAN_MOTION_DDOT = 0

CCSDS_OMM_VERS = 2.0
CREATION_DATE  = 
ORIGINATOR     = 

OBJECT_NAME    = STARLINK-36647
OBJECT_ID      = 2026-033D
CENTER_NAME    = EARTH
REF_FRAME      = TEME
TIME_SYSTEM    = UTC
MEAN_ELEMENT_THEORY = SGP/SGP4

EPOCH          = 2026-03-12T22:00:01.999584
MEAN_MOTION    = 15.72580157
ECCENTRICITY   = .0001676
INCLINATION    = 42.9993
RA_OF_ASC_NODE = 251.8149
ARG_OF_PERICENTER = 273.7816
MEAN_ANOMALY   = 75.6644

EPHEMERIS_TYPE = 0
CLASSIFICATION_TYPE = U
NORAD_CAT_ID   = 67824
ELEMENT_SET_NO = 999
REV_AT_EPOCH   = 518
BSTAR          = -.15482E-1
MEAN_MOTION_DOT = -.1863193E-1
MEAN_MOTION_DDOT = 0

CCSDS_OMM_VERS = 2.0
CREATION_DATE  = 
ORIGINATOR     = 

OBJECT_NAME    = STARLINK-36648
OBJECT_ID      = 2026-033E
CENTER_NAME    = EARTH
REF_FRAME      = TEME
TIME_SYSTEM    = UTC
MEAN_ELEMENT_THEORY = SGP/SGP4

EPOCH          = 2026-03-12T20:21:04.957056
MEAN_MOTION    = 15.82083875
ECCENTRICITY   = .0002057
INCLINATION    = 42.9983
RA_OF_ASC_NODE = 252.1268
ARG_OF_PERICENTER = 269.3371
MEAN_ANOMALY   = 90.7265

EPHEMERIS_TYPE = 0
CLASSIFICATION_TYPE = U
NORAD_CAT_ID   = 67825
ELEMENT_SET_NO = 999
REV_AT_EPOCH   = 512
BSTAR          = .8111E-3
MEAN_MOTION_DOT = .174293E-2
MEAN_MOTION_DDOT = 0

CCSDS_OMM_VERS = 2.0
CREATION_DATE  = 
ORIGINATOR     = 

OBJECT_NAME    = STARLINK-35865
OBJECT_ID      = 2026-033F
CENTER_NAME    = EARTH
REF_FRAME      = TEME
TIME_SYSTEM    = UTC
MEAN_ELEMENT_THEORY = SGP/SGP4

EPOCH          = 2026-03-12T21:54:12.237696
MEAN_MOTION    = 15.76957328
ECCENTRICITY   = .0003079
INCLINATION    = 42.9982
RA_OF_ASC_NODE = 251.7526
ARG_OF_PERICENTER = 238.3386
MEAN_ANOMALY   = 121.7184

EPHEMERIS_TYPE = 0
CLASSIFICATION_TYPE = U
NORAD_CAT_ID   = 67826
ELEMENT_SET_NO = 999
REV_AT_EPOCH   = 513
BSTAR          = -.5079E-2
MEAN_MOTION_DOT = -.776491E-2
MEAN_MOTION_DDOT = 0

CCSDS_OMM_VERS = 2.0
CREATION_DATE  = 
ORIGINATOR     = 

OBJECT_NAME    = STARLINK-36289
OBJECT_ID      = 2026-033G
CENTER_NAME    = EARTH
REF_FRAME      = TEME
TIME_SYSTEM    = UTC
MEAN_ELEMENT_THEORY = SGP/SGP4

EPOCH          = 2026-03-12T22:00:01.999584
MEAN_MOTION    = 15.72151779
ECCENTRICITY   = .000165
INCLINATION    = 42.9992
RA_OF_ASC_NODE = 251.7915
ARG_OF_PERICENTER = 271.6706
MEAN_ANOMALY   = 87.0699

EPHEMERIS_TYPE = 0
CLASSIFICATION_TYPE = U
NORAD_CAT_ID   = 67827
ELEMENT_SET_NO = 999
REV_AT_EPOCH   = 518
BSTAR          = -.15731E-1
MEAN_MOTION_DOT = -.1859147E-1
MEAN_MOTION_DDOT = 0

CCSDS_OMM_VERS = 2.0
CREATION_DATE  = 
ORIGINATOR     = 

OBJECT_NAME    = STARLINK-36670
OBJECT_ID      = 2026-033H
CENTER_NAME    = EARTH
REF_FRAME      = TEME
TIME_SYSTEM    = UTC
MEAN_ELEMENT_THEORY = SGP/SGP4

EPOCH          = 2026-03-12T21:55:37.119648
MEAN_MOTION    = 15.74506756
ECCENTRICITY   = .0003705
INCLINATION    = 42.9985
RA_OF_ASC_NODE = 251.7594
ARG_OF_PERICENTER = 228.0736
MEAN_ANOMALY   = 131.9817

EPHEMERIS_TYPE = 0
CLASSIFICATION_TYPE = U
NORAD_CAT_ID   = 67828
ELEMENT_SET_NO = 999
REV_AT_EPOCH   = 513
BSTAR          = -.58395E-2
MEAN_MOTION_DOT = -.798949E-2
MEAN_MOTION_DDOT = 0

CCSDS_OMM_VERS = 2.0
CREATION_DATE  = 
ORIGINATOR     = 

OBJECT_NAME    = STARLINK-36144
OBJECT_ID      = 2026-033J
CENTER_NAME    = EARTH
REF_FRAME      = TEME
TIME_SYSTEM    = UTC
MEAN_ELEMENT_THEORY = SGP/SGP4

EPOCH          = 2026-03-12T22:00:01.999584
MEAN_MOTION    = 15.72909432
ECCENTRICITY   = .000162
INCLINATION    = 42.9993
RA_OF_ASC_NODE = 251.7540
ARG_OF_PERICENTER = 273.3887
MEAN_ANOMALY   = 100.0798

EPHEMERIS_TYPE = 0
CLASSIFICATION_TYPE = U
NORAD_CAT_ID   = 67829
ELEMENT_SET_NO = 999
REV_AT_EPOCH   = 518
BSTAR          = -.15227E-1
MEAN_MOTION_DOT = -.185944E-1
MEAN_MOTION_DDOT = 0

CCSDS_OMM_VERS = 2.0
CREATION_DATE  = 
ORIGINATOR     = 

OBJECT_NAME    = STARLINK-36611
OBJECT_ID      = 2026-033K
CENTER_NAME    = EARTH
REF_FRAME      = TEME
TIME_SYSTEM    = UTC
MEAN_ELEMENT_THEORY = SGP/SGP4

EPOCH          = 2026-03-12T22:00:01.999584
MEAN_MOTION    = 15.75075181
ECCENTRICITY   = .0001683
INCLINATION    = 42.9991
RA_OF_ASC_NODE = 251.7063
ARG_OF_PERICENTER = 275.7343
MEAN_ANOMALY   = 116.9063

EPHEMERIS_TYPE = 0
CLASSIFICATION_TYPE = U
NORAD_CAT_ID   = 67830
ELEMENT_SET_NO = 999
REV_AT_EPOCH   = 518
BSTAR          = -.13896E-1
MEAN_MOTION_DOT = -.1864964E-1
MEAN_MOTION_DDOT = 0

CCSDS_OMM_VERS = 2.0
CREATION_DATE  = 
ORIGINATOR     = 

OBJECT_NAME    = STARLINK-36661
OBJECT_ID      = 2026-033L
CENTER_NAME    = EARTH
REF_FRAME      = TEME
TIME_SYSTEM    = UTC
MEAN_ELEMENT_THEORY = SGP/SGP4

EPOCH          = 2026-03-12T18:59:08.716704
MEAN_MOTION    = 15.70650655
ECCENTRICITY   = .0009817
INCLINATION    = 43.0000
RA_OF_ASC_NODE = 252.5641
ARG_OF_PERICENTER = 328.3875
MEAN_ANOMALY   = 31.6402

EPHEMERIS_TYPE = 0
CLASSIFICATION_TYPE = U
NORAD_CAT_ID   = 67831
ELEMENT_SET_NO = 999
REV_AT_EPOCH   = 511
BSTAR          = .56163E-3
MEAN_MOTION_DOT = .71847E-3
MEAN_MOTION_DDOT = 0

CCSDS_OMM_VERS = 2.0
CREATION_DATE  = 
ORIGINATOR     = 

OBJECT_NAME    = STARLINK-36662
OBJECT_ID      = 2026-033M
CENTER_NAME    = EARTH
REF_FRAME      = TEME
TIME_SYSTEM    = UTC
MEAN_ELEMENT_THEORY = SGP/SGP4

EPOCH          = 2026-03-12T21:39:55.558368
MEAN_MOTION    = 15.84501987
ECCENTRICITY   = .0001735
INCLINATION    = 42.9969
RA_OF_ASC_NODE = 250.7619
ARG_OF_PERICENTER = 266.6971
MEAN_ANOMALY   = 93.3703

EPHEMERIS_TYPE = 0
CLASSIFICATION_TYPE = U
NORAD_CAT_ID   = 67832
ELEMENT_SET_NO = 999
REV_AT_EPOCH   = 514
BSTAR          = .10605E-2
MEAN_MOTION_DOT = .258237E-2
MEAN_MOTION_DDOT = 0

CCSDS_OMM_VERS = 2.0
CREATION_DATE  = 
ORIGINATOR     = 

OBJECT_NAME    = STARLINK-36659
OBJECT_ID      = 2026-033N
CENTER_NAME    = EARTH
REF_FRAME      = TEME
TIME_SYSTEM    = UTC
MEAN_ELEMENT_THEORY = SGP/SGP4

EPOCH          = 2026-03-12T20:13:40.621728
MEAN_MOTION    = 15.81357226
ECCENTRICITY   = .0001816
INCLINATION    = 42.9970
RA_OF_ASC_NODE = 252.0859
ARG_OF_PERICENTER = 307.9497
MEAN_ANOMALY   = 52.1210

EPHEMERIS_TYPE = 0
CLASSIFICATION_TYPE = U
NORAD_CAT_ID   = 67833
ELEMENT_SET_NO = 999
REV_AT_EPOCH   = 512
BSTAR          = -.25046E-2
MEAN_MOTION_DOT = -.484356E-2
MEAN_MOTION_DDOT = 0

